OBJECT_NAME,OBJECT_ID,EPOCH,MEAN_MOTION,ECCENTRICITY,INCLINATION,RA_OF_ASC_NODE,ARG_OF_PERICENTER,MEAN_ANOMALY,EPHEMERIS_TYPE,CLASSIFICATION_TYPE,NORAD_CAT_ID,ELEMENT_SET_NO,REV_AT_EPOCH,BSTAR,MEAN_MOTION_DOT,MEAN_MOTION_DDOT
GSAT-29,2018-089A,2026-07-14T20:50:35.243808,1.00275871,.00029554,0.0565,246.2149,199.3608,214.9248,0,U,43698,999,2806,0,.75E-6,0
ES'HAIL 2,2018-090A,2026-07-15T13:29:29.480928,1.00271094,.00022125,0.0171,47.4652,111.6490,2.4404,0,U,43700,999,2796,0,.134E-5,0
GEO-KOMPSAT-2A,2018-100A,2026-07-14T17:27:00.252000,1.00269956,.00019612,0.0287,108.8702,352.7689,220.9550,0,U,43823,999,2790,0,-.352E-5,0
GSAT-11,2018-100B,2026-07-15T13:43:15.605760,1.00271097,.0007678,0.0514,251.1897,206.6346,115.4084,0,U,43824,999,2776,0,-.87E-6,0
GSAT-7A,2018-105A,2026-07-15T11:57:22.625856,1.00271182,.00016709,0.0855,91.3660,19.8118,64.2529,0,U,43864,999,2773,0,.17E-6,0
COSMOS 2533,2018-107A,2026-07-15T18:50:03.348672,1.00275050,.0000785,0.0371,111.7068,132.4303,41.9979,0,U,43867,999,2773,0,-.49E-6,0
TJS-3,2018-110A,2026-07-15T18:51:57.914208,1.00271702,.000255,2.6165,80.1459,88.8325,195.8619,0,U,43874,999,2770,0,-.228E-5,0
ZHONGXING-2D,2019-001A,2026-07-15T16:13:28.305984,1.00269445,.00003268,0.0206,262.5283,45.4054,358.9499,0,U,43920,999,5436,0,0,0
HELLAS-SAT 4 & SGS-1,2019-007A,2026-07-14T06:45:29.330208,1.00271532,.00057278,0.0672,125.5173,21.8726,285.1324,0,U,44034,999,2763,0,.146E-5,0
GSAT-31,2019-007B,2026-07-15T15:18:31.752000,1.00271065,.00007938,0.0157,96.6946,133.6270,340.6566,0,U,44035,999,2725,0,.115E-5,0
NUSANTARA SATU,2019-009A,2026-07-13T12:36:13.139712,1.00270313,.00046786,0.0316,124.8301,6.3551,135.2754,0,U,44048,999,2703,0,-.239E-5,0
ZHONGXING-6C,2019-012A,2026-07-15T17:24:35.208864,1.00258576,.0014079,0.0484,66.2524,344.8356,274.0336,0,U,44067,999,2702,0,-.347E-5,0
WGS 10 (USA 291),2019-014A,2026-07-14T10:16:52.539168,1.00270690,.00003114,0.0177,45.2250,233.8921,227.6921,0,U,44071,999,2689,0,.4E-6,0
TIANLIAN 2-01,2019-017A,2026-07-15T15:30:26.178048,1.00270875,.00014896,0.6114,83.0541,79.7730,80.2854,0,U,44076,999,2693,0,-.117E-5,0
ARABSAT-6A,2019-021A,2026-07-15T00:32:50.225856,1.00263266,.00024217,0.0447,7.0432,247.5650,76.9528,0,U,44186,999,2643,0,.144E-5,0
BEIDOU-3 IGSO-1,2019-023A,2026-07-13T11:51:18.021312,1.00283496,.00257348,58.7323,37.3789,224.1077,326.8166,0,U,44204,999,747,0,-.204E-5,0
BEIDOU-2 G8,2019-027A,2026-07-15T15:46:03.783936,1.00271527,.00096983,1.7277,74.4887,282.1138,317.9382,0,U,44231,999,2636,0,-.258E-5,0
YAMAL 601,2019-031A,2026-07-15T17:01:23.227968,1.00269411,.0002359,0.0248,73.4939,44.5093,119.9062,0,U,44307,999,2621,0,0,0
AT&T T-16,2019-034A,2026-07-14T19:46:46.069248,1.00268430,.00006162,0.0157,70.7114,248.2150,169.5701,0,U,44333,999,2591,0,-.123E-5,0
EUTELSAT 7C,2019-034B,2026-07-14T13:26:51.685152,1.00270205,.000313,0.0769,179.8524,279.4611,41.8320,0,U,44334,999,711,0,.4E-6,0
BEIDOU-3 IGSO-2,2019-035A,2026-07-15T07:05:30.557184,1.00257621,.00394781,55.2501,158.6158,216.6534,142.7647,0,U,44337,999,2594,0,-.14E-5,0
COSMOS 2539,2019-048A,2026-07-14T23:05:19.317696,1.00271598,.0000812,0.0358,102.1610,356.5248,192.4498,0,U,44457,999,2550,0,.72E-6,0
EDRS-C,2019-049A,2026-07-14T14:05:22.714080,1.00271140,.0000893,0.0172,104.9935,24.4612,156.8304,0,U,44475,999,2548,0,-.27E-5,0
INTELSAT 39 (IS-39),2019-049B,2026-07-13T22:12:21.718368,1.00272225,.0000733,0.0241,49.4551,282.1376,355.2527,0,U,44476,999,2539,0,0,0
AMOS-17,2019-050A,2026-07-14T23:11:44.244384,1.00273560,.00013193,0.0160,21.3771,98.7093,177.6626,0,U,44479,999,2546,0,.1E-5,0
AEHF-5 (USA 292),2019-051A,2026-07-15T15:00:40.088736,1.00273664,.00649612,1.4307,338.4461,357.5481,275.7031,0,U,44481,999,2554,0,-.266E-5,0
EUTELSAT 5 WEST B,2019-067A,2026-07-14T15:06:19.025568,1.00269913,.00030963,0.0701,333.5012,138.5371,42.0158,0,U,44624,999,2471,0,-.51E-6,0
MEV-1,2019-067B,2026-06-16T22:18:40.152960,1.00269616,.00027946,0.8740,268.9828,179.8034,307.2103,0,U,44625,999,6174,0,-.149E-5,0
TJS-4,2019-070A,2026-07-14T17:01:24.225888,1.00257855,.00013861,0.1149,260.5370,318.2730,52.6242,0,U,44637,999,2481,0,-.175E-5,0
TIBA-1,2019-080A,2026-07-15T15:14:54.599424,1.00271105,.00019086,0.0530,17.1801,109.4991,70.9951,0,U,44800,999,2434,0,.146E-5,0
INMARSAT GX5,2019-080B,2026-07-15T13:25:22.376064,1.00272859,.0002271,0.0350,0.3430,126.3391,19.0929,0,U,44801,999,707,0,.65E-6,0
JCSAT-18 (KACIFIC 1),2019-091A,2026-07-15T14:34:38.602272,1.00269210,.00004901,0.0503,236.5864,18.6198,46.8827,0,U,44868,999,2429,0,-.212E-5,0
